COSMOS 2433 (720)       
1 32275U 07052A   22187.31231819 -.00000033  00000+0  00000+0 0  9996
2 32275  66.0851   4.0438 0001225 172.4547 156.2336  2.13104404114366
COSMOS 2432 (719)       
1 32276U 07052B   22187.41368765 -.00000033  00000+0  00000+0 0  9999
2 32276  66.0936   4.1423 0008746 342.6552  12.0807  2.13103444114363
COSMOS 2434 (721)       
1 32393U 07065A   22183.50882635  .00000046  00000+0  00000+0 0  9999
2 32393  64.3808 240.9127 0001250 126.0631  54.3264  2.13103356112993
COSMOS 2436 (723)       
1 32395U 07065C   22187.34664880  .00000056  00000+0  00000+0 0  9998
2 32395  64.3881 240.8380 0014538 353.6188  26.9108  2.13103131113011
COSMOS 2456 (730)       
1 36111U 09070A   22187.41479591  .00000028  00000+0  00000+0 0  9996
2 36111  64.3568 120.4032 0005450 309.5169 152.7226  2.13099296 97748
COSMOS 2457 (733)       
1 36112U 09070B   22187.26988745  .00000029  00000+0  00000+0 0  9997
2 36112  64.3419 120.2838 0003930 186.3107 292.2015  2.13101513 97742
COSMOS 2461 (735)       
1 36401U 10007B   22186.35347334 -.00000037  00000+0  00000+0 0  9992
2 36401  65.9700   2.9114 0020436  13.9796 156.5220  2.13104006 96070
COSMOS 2460 (732)       
1 36402U 10007C   22187.34661542 -.00000034  00000+0  00000+0 0  9990
2 36402  65.9551   2.8287 0002711  83.0145  77.9787  2.13106319 96092
COSMOS 2464 (736)       
1 37139U 10041C   22186.74110813  .00000053  00000+0  00000+0 0  9999
2 37139  63.9797 239.8693 0027980   7.9202 350.2684  2.13100809 92139
COSMOS 2476 (744)       
1 37867U 11064A   22187.53394626  .00000030  00000+0  00000+0 0  9992
2 37867  64.6465 121.7631 0022376 240.4353 218.8808  2.13101797 83092
COSMOS 2477 (745)       
1 37868U 11064B   22187.29227733  .00000031  00000+0  00000+0 0  9991
2 37868  64.6541 121.8358 0019873 241.7297 210.2923  2.13101701 83048
COSMOS 2475 (743)       
1 37869U 11064C   22187.40624623  .00000031  00000+0  00000+0 0  9994
2 37869  64.6619 121.8406 0024451 258.3269 239.1628  2.13102059 83050
COSMOS 2485 (747)       
1 39155U 13019A   22186.59039209  .00000035  00000+0  00000+0 0  9999
2 39155  64.8104 122.2276 0022776 236.3261 263.5221  2.13101974 71543
COSMOS 2492 (754)       
1 39620U 14012A   22186.59663167 -.00000036  00000+0  00000+0 0  9998
2 39620  65.8424   2.5324 0011742 334.1227 204.9799  2.13103169 64493
COSMOS 2500 (755)       
1 40001U 14032A   22187.54509008 -.00000034  00000+0  00000+0 0  9992
2 40001  65.7806   2.3596 0005531 178.1029 227.2389  2.13102359 62733
COSMOS 2501 (702K)      
1 40315U 14075A   22186.51067882  .00000050  00000+0  00000+0 0  9999
2 40315  63.6874 240.5383 0018973 210.3993 289.4638  2.13101545 59117
COSMOS 2514 (751)       
1 41330U 16008A   22186.30778288 -.00000038  00000+0  00000+0 0  9998
2 41330  65.5811   2.0892 0009233 197.8835 162.1083  2.13102859 49878
COSMOS 2516 (753)       
1 41554U 16032A   22186.59302997  .00000050  00000+0  00000+0 0  9997
2 41554  63.9141 240.8174 0014719 215.7444 266.1726  2.13106468 47484
COSMOS 2522 (752)       
1 42939U 17055A   22186.66411888  .00000050  00000+0  00000+0 0  9999
2 42939  64.1470 241.2148 0009345 241.7837 151.1679  2.13102172 37241
COSMOS 2527 (756)       
1 43508U 18053A   22187.28660317  .00000032  00000+0  00000+0 0  9993
2 43508  64.9722 122.2072 0008975 240.5518 302.0497  2.13102488 31549
COSMOS 2529 (757)       
1 43687U 18086A   22186.27862922  .00000048  00000+0  00000+0 0  9998
2 43687  64.3618 241.5488 0010811 262.7914 149.9538  2.13102196 28545
COSMOS 2534 (758)       
1 44299U 19030A   22186.50297321  .00000049  00000+0  00000+0 0  9990
2 44299  64.4341 241.4270 0012967 282.7740  76.6428  2.13102020 24186
COSMOS 2544 (759)       
1 44850U 19088A   22186.73172646  .00000035  00000+0  16595+1 0  9995
2 44850  64.9586 122.0784 0013866 263.5560 256.8170  2.13102289 19968
COSMOS 2545 (760)       
1 45358U 20018A   22187.38223345 -.00000037  00000+0  00000+0 0  9995
2 45358  64.9180   2.6455 0006472 241.1905 267.6743  2.13102625 17935
COSMOS 2547 (705K)      
1 46805U 20075A   22186.72690795  .00000052  00000+0  00000+0 0  9996
2 46805  64.6591 240.8503 0008004 244.3765 334.5976  2.13103200 13161
